LEMUR-2-WANLI           
1 44402U 19038S   23031.47089962  .00027977  00000+0  10659-2 0  9993
2 44402  97.6424   8.8170 0020384  60.8297 299.4978 15.26486202197732
LEMUR-2-MORAG           
1 44403U 19038T   23031.46110004  .00017044  00000+0  68595-3 0  9992
2 44403  97.6493   9.7643 0020425  59.3655 300.9592 15.24764582197751
LEMUR-2-DUSTINTHEWIND   
1 44405U 19038V   23031.46429003  .00022870  00000+0  90149-3 0  9999
2 44405  97.6454   8.5658 0021386  58.9013 301.4319 15.25376374197722
LEMUR-2-ALEX-MADDY      
1 44407U 19038X   23031.47326347  .00014905  00000+0  65718-3 0  9993
2 44407  97.6548   8.0642 0021540  67.0464 293.3042 15.21685219197616
LEMUR-2-EJATTA          
1 44409U 19038Z   23031.51965037  .00021373  00000+0  82317-3 0  9996
2 44409  97.6433   9.5649 0020305  54.5126 305.8002 15.26184760197804
LEMUR-2-GREGROBINSON    
1 44411U 19038AB  23031.47049787  .00029102  00000+0  10924-2 0  9991
2 44411  97.6456   9.8705 0021297  63.0336 297.3074 15.26951181197428
LEMUR-2-YNDRD           
1 44413U 19038AD  23031.43408154  .00018651  00000+0  80530-3 0  9994
2 44413  97.6512   7.7711 0021828  66.9025 293.4509 15.22342412197612
LEMUR-2-JPGSQUARED      
1 44855U 19089D   23031.38541998  .00012199  00000+0  80421-3 0  9998
2 44855  36.9629 180.6654 0005690 297.3550  62.6615 15.06919030172352
LEMUR-2-HIMOMANDDAD     
1 44860U 19089J   23031.44971194  .00012584  00000+0  83133-3 0  9997
2 44860  36.9636 182.0830 0005511 296.1424  63.8753 15.06833668172221
LEMUR-2-PAPPY           
1 44861U 19089K   23031.45530089  .00011143  00000+0  74712-3 0  9996
2 44861  36.9629 182.1143 0005579 292.2294  67.7858 15.06324351172287
LEMUR-2-THEODOSIA       
1 44863U 19089M   23031.49695482  .00011981  00000+0  78854-3 0  9992
2 44863  36.9620 180.5690 0005691 298.8401  61.1772 15.06985933172211
LEMUR-2-ETHANOAKES      
1 46298U 20061AC  23031.43453112  .00022451  00000+0  89809-3 0  9990
2 46298  97.4264 104.8466 0001166 116.0908 244.0449 15.25098039133142
LEMUR-2-OSCARLATOR      
1 46299U 20061AD  23031.15628681  .00025860  00000+0  99177-3 0  9991
2 46299  97.4264 104.8109 0000684 113.3277 246.8034 15.26476600133145
LEMUR-2-SCHMIDTFALL     
1 46315U 20061AV  23031.42018553  .00029213  00000+0  10980-2 0  9991
2 46315  97.4281 105.7364 0002121  88.8567 271.2914 15.27118393133267
LEMUR-2-DJUPROERA       
1 46316U 20061AW  23031.13016985  .00032860  00000+0  11859-2 0  9995
2 46316  97.4273 105.7454 0002029  79.9180 280.2289 15.28433681133242
LEMUR-2-SQUAREJAWS      
1 46317U 20061AX  23031.13113274  .00029922  00000+0  11007-2 0  9995
2 46317  97.4271 105.6141 0002090  81.9371 278.2106 15.27824451133249
LEMUR-2-URSA-AVION      
1 46318U 20061AY  23031.14459396  .00027210  00000+0  10095-2 0  9999
2 46318  97.4270 105.5857 0002155  80.0564 280.0918 15.27563457133246
LEMUR-2-SLICERS         
1 46500U 20068Q   23031.31304279  .00017196  00000+0  10554-2 0  9999
2 46500  97.7433 338.0259 0009656 224.7806 135.2636 15.10145224128434
LEMUR-2-DAYWZAGOODDAY   
1 46501U 20068R   23031.27528263  .00016610  00000+0  10152-2 0  9990
2 46501  97.7440 338.2955 0008800 236.0599 123.9686 15.10312041128435
LEMUR-2-SUSURRUS        
1 46502U 20068S   23031.57908980  .00016532  00000+0  10164-2 0  9998
2 46502  97.7416 338.2916 0009602 230.6202 129.4123 15.10091910128478
LEMUR-2-NICHOL          
1 46503U 20068T   23031.28194068  .00015922  00000+0  98699-3 0  9993
2 46503  97.7450 337.9240 0008859 243.0062 117.0210 15.09803667128421
LEMUR-2-OZARAK          
1 46908U 20081D   23031.13029002  .00017630  00000+0  12008-2 0  9993
2 46908  36.9037 309.0421 0003158 122.8344 237.2697 15.05608546122446
LEMUR-2-JINDRA          
1 46909U 20081E   23031.15594807  .00022150  00000+0  14627-2 0  9998
2 46909  36.9016 306.4838 0003180 133.2106 226.8390 15.06696075122487
LEMUR-2-WALLACE         
1 46910U 20081F   23031.07223197  .00020332  00000+0  13604-2 0  9996
2 46910  36.9043 307.6587 0003977 101.3647 258.6602 15.06229281122450
LEMUR-2-JEREMIAH        
1 46911U 20081G   23031.13964227  .00015130  00000+0  10269-2 0  9994
2 46911  36.9129 307.3191 0003105 159.4070 200.6793 15.05782680122477
LEMUR-2-NEVA            
1 47450U 21006AP  23031.15925253  .00015074  00000+0  62818-3 0  9994
2 47450  97.4183  92.4629 0009194 197.3664 162.7260 15.23767252111888
LEMUR-2-SAOIRSEDH5GUO   
1 47453U 21006AS  23031.11227940  .00018643  00000+0  75752-3 0  9997
2 47453  97.4196  92.6315 0007607 198.4364 161.6599 15.24586849111879
LEMUR-2-NALLYWACKER     
1 47457U 21006AW  23031.08032859  .00016907  00000+0  68381-3 0  9991
2 47457  97.4164  92.5733 0008291 196.2754 163.8219 15.24758013111888
LEMUR-2-MANGO1          
1 47493U 21006CJ  23031.10478069  .00013679  00000+0  60800-3 0  9992
2 47493  97.4128  91.1025 0008540 204.0515 156.0323 15.21601455111825
LEMUR-2-RUAIRI-EILIDH   
1 47511U 21006DC  23031.08383507  .00013725  00000+0  59574-3 0  9990
2 47511  97.4111  90.7739 0006182 201.9739 158.1233 15.22427496111802
LEMUR-2-JENNIFERSONG    
1 47525U 21006DR  23031.60453515  .00020692  00000+0  83503-3 0  9990
2 47525  97.4125  92.6738 0008572 194.3963 165.7031 15.24787179111967
LEMUR-2-CHANTAL         
1 47529U 21006DV  23031.09638440  .00014759  00000+0  65602-3 0  9996
2 47529  97.4108  90.4193 0005889 206.4815 153.6121 15.21601339112734
LEMUR-2-NOOBNOOB        
1 47538U 21006DY  23031.11288978  .00018210  00000+0  76939-3 0  9997
2 47538  97.4165  92.2047 0008648 201.0158 159.0724 15.23265721111856
LEMUR-2-AMANDA-SVANTE   
1 48269U 21034B   23031.18639227  .00003727  00000+0  39757-3 0  9998
2 48269  97.7245 102.0201 0003961  57.8083 302.3518 14.89438071 95406
LEMUR-2-SPECIAL-K       
1 48273U 21034F   23031.59882185  .00005705  00000+0  60424-3 0  9994
2 48273  97.7246 102.3981 0004026  53.4771 306.6817 14.89507286 95470
LEMUR-2-JACKSON         
1 48885U 21059G   23031.31410221  .00025282  00000+0  10357-2 0  9999
2 48885  97.5704 166.4453 0007419  16.5147 343.6330 15.24250867 88548
LEMUR-2-ANNABANANA      
1 48923U 21059AW  23031.11543826  .00025729  00000+0  99348-3 0  9992
2 48923  97.5638 166.8700 0009472  13.5414 346.6076 15.26212182 88585
LEMUR-2-JOHN-TREIRES    
1 48925U 21059AY  23031.59435690  .00032516  00000+0  12009-2 0  9995
2 48925  97.5760 168.3618 0011591  11.8761 348.2749 15.27615883 88692
LEMUR-2-AC-CUBED        
1 48927U 21059BA  23031.14205041  .00023308  00000+0  91775-3 0  9990
2 48927  97.5734 167.4041 0013940  20.7287 339.4513 15.25533141 88603
LEMUR-2-MERIMA          
1 48929U 21059BC  23031.35591665  .00026518  00000+0  10018-2 0  9991
2 48929  97.5645 167.7863 0013938  17.9478 342.2250 15.26882779 88669
LEMUR-2-CARLSANTAMARI   
1 48959U 21059CJ  23030.88739273  .00035523  00000+0  11413-2 0  9996
2 48959  97.5717 168.7453 0012201  16.4908 343.6727 15.32124703 88670
LEMUR-2-RAMONAMAE       
1 51021U 22002AP  23031.12891711  .00019285  00000+0  84572-3 0  9997
2 51021  97.4622 100.4146 0007669  10.6430 349.4967 15.21994785 57958
LEMUR-2-KING-JULIEN     
1 51022U 22002AQ  23031.42048683  .00017540  00000+0  77654-3 0  9998
2 51022  97.4594 100.5292 0007598   7.5707 352.5642 15.21689521 57991
LEMUR-2-ROHOVITHSA      
1 51036U 22002BE  23031.12673427  .00010055  00000+0  49128-3 0  9999
2 51036  97.4621  99.6923 0008395  14.3388 345.8082 15.18411826 57904
LEMUR-2-MIRIWARI        
1 51054U 22002BY  23031.13267151  .00010402  00000+0  50574-3 0  9996
2 51054  97.4612  99.6463 0007752   7.5712 352.5638 15.18578367 57900
LEMUR-2-DJIRANG         
1 51058U 22002CC  23031.13357109  .00014314  00000+0  69414-3 0  9992
2 51058  97.4589  99.5440 0007539   7.1152 353.0188 15.18591680 57907
LEMUR-2-KRYWE           
1 51100U 22003G   23031.60476388  .00051288  00000+0  71388-3 0  9998
2 51100  44.9802 237.7420 0012285 231.0839 128.8960 15.56155825 58779
LEMUR-2-TENNYSONLILY    
1 52732U 22057A   23031.26086603  .00020749  00000+0  10139-2 0  9992
2 52732  97.5353 148.4424 0007736 117.2679 242.9344 15.18244265 37901
LEMUR-2-VANDENDRIES     
1 52733U 22057B   23031.13731850  .00010800  00000+0  54937-3 0  9992
2 52733  97.5226 147.9338 0007392 116.1876 244.0118 15.16990605 37887
LEMUR-2-KAREN B         
1 52736U 22057E   23031.26422825  .00021864  00000+0  10520-2 0  9999
2 52736  97.5220 148.1668 0006340 101.1629 259.0319 15.18780179 37913
LEMUR-2-HANCOM-1        
1 52740U 22057J   23031.28164766  .00015656  00000+0  79279-3 0  9992
2 52740  97.5403 148.6369 0010340 109.2861 250.9492 15.17037837 37902
LEMUR-2-MIMI1307        
1 52769U 22057AP  23031.29341321  .00005614  00000+0  27728-3 0  9993
2 52769  97.5395 149.0254 0013649  86.6984 273.5811 15.18196375 37933
LEMUR-2-PHILARI         
1 55013U 23001E   23031.58436166  .00012568  00000+0  71817-3 0  9996
2 55013  97.4975  93.2075 0011019 124.0422 236.1856 15.12785916  4381
LEMUR-2-DISCLAIMER      
1 55014U 23001F   23031.58337916  .00013541  00000+0  77069-3 0  9997
2 55014  97.5011  93.2248 0012068 129.8121 230.4174 15.12900391  4386
LEMUR-2-STEVEALBERS     
1 55017U 23001J   23031.58270004  .00011209  00000+0  63990-3 0  9991
2 55017  97.4961  93.2051 0011628 126.0488 234.1822 15.12841784  4381
LEMUR-2-EMMACULATE      
1 55037U 23001AE  23031.55763895  .00014310  00000+0  78038-3 0  9990
2 55037  97.5036  93.2662 0016995 116.3416 243.9563 15.14355399  4384
LEMUR-2-MMOLO           
1 55038U 23001AF  23031.62108496  .00013993  00000+0  76128-3 0  9993
2 55038  97.5051  93.3401 0017868 119.2292 241.0729 15.14431904  4399
LEMUR-2-FUENTETAJA-01   
1 55088U 23001CH  23031.55832423  .00011271  00000+0  61847-3 0  9993
2 55088  97.5062  93.2740 0017502 117.5562 242.7450 15.14185732  4380
